STARLINK-36461          
1 67316U 26002M   26033.41046061  .00091440  00000+0  15426-2 0  9996
2 67316  42.9995 165.3524 0001719 262.9099  97.1566 15.50647166  5835
STARLINK-36450          
1 67317U 26002N   26033.41013911  .00075636  00000+0  12829-2 0  9998
2 67317  42.9997 165.3502 0003154 235.5406 124.5156 15.50569865  5836
STARLINK-36498          
1 67318U 26002P   26033.40942960  .00109138  00000+0  18348-2 0  9990
2 67318  42.9995 165.3426 0001694 263.2018  96.8649 15.50663973  5736
STARLINK-36470          
1 67319U 26002Q   26032.76563054  .00065696  00000+0  11161-2 0  9998
2 67319  42.9977 169.1151 0000404 343.6351  16.4496 15.50583115  5631
STARLINK-36500          
1 67320U 26002R   26032.00003472 -.00070301  00000+0 -12019-2 0  9994
2 67320  42.9995 173.5823 0001626 275.6438 129.5340 15.50611255  5580
STARLINK-36462          
1 67321U 26002S   26033.40839502  .00104187  00000+0  17440-2 0  9992
2 67321  43.0005 165.3358 0006535 299.5431  60.4778 15.50788787  5672
STARLINK-36434          
1 67322U 26002T   26033.40878563  .00086295  00000+0  14868-2 0  9993
2 67322  43.0036 165.3410 0009261 300.4164  59.5780 15.50036268  5672
STARLINK-36497          
1 67323U 26002U   26033.40808674 -.01194380  00000+0 -21525-1 0  9995
2 67323  42.9985 165.3339 0002894 196.7307 163.3459 15.51590540  5737
STARLINK-36471          
1 67324U 26002V   26033.40737300  .00074402  00000+0  12593-2 0  9998
2 67324  42.9986 165.3270 0001906 282.3619  77.7027 15.50638267  5674
STARLINK-36473          
1 67325U 26002W   26033.40769550  .01241570  00000+0  16552-1 0  9992
2 67325  42.9938 165.3326 0028909 163.7871 196.3921 15.54345475  5837
STARLINK-36430          
1 67326U 26002X   26033.40668570  .00064589  00000+0  10957-2 0  9999
2 67326  43.0006 165.3188 0001714 268.6729  91.3935 15.50630046  5830
STARLINK-36501          
1 67327U 26002Y   26033.40703019  .00072101  00000+0  12211-2 0  9992
2 67327  43.0006 165.3233 0001472 279.7976  80.2718 15.50635024  5679
