CCSDS_OMM_VERS = 2.0
CREATION_DATE  = 
ORIGINATOR     = 

OBJECT_NAME    = STARLINK-36461
OBJECT_ID      = 2026-002M
CENTER_NAME    = EARTH
REF_FRAME      = TEME
TIME_SYSTEM    = UTC
MEAN_ELEMENT_THEORY = SGP/SGP4

EPOCH          = 2026-02-02T09:51:03.796704
MEAN_MOTION    = 15.50647166
ECCENTRICITY   = .0001719
INCLINATION    = 42.9995
RA_OF_ASC_NODE = 165.3524
ARG_OF_PERICENTER = 262.9099
MEAN_ANOMALY   = 97.1566

EPHEMERIS_TYPE = 0
CLASSIFICATION_TYPE = U
NORAD_CAT_ID   = 67316
ELEMENT_SET_NO = 999
REV_AT_EPOCH   = 583
BSTAR          = .15426E-2
MEAN_MOTION_DOT = .9144E-3
MEAN_MOTION_DDOT = 0

CCSDS_OMM_VERS = 2.0
CREATION_DATE  = 
ORIGINATOR     = 

OBJECT_NAME    = STARLINK-36450
OBJECT_ID      = 2026-002N
CENTER_NAME    = EARTH
REF_FRAME      = TEME
TIME_SYSTEM    = UTC
MEAN_ELEMENT_THEORY = SGP/SGP4

EPOCH          = 2026-02-02T09:50:36.019104
MEAN_MOTION    = 15.50569865
ECCENTRICITY   = .0003154
INCLINATION    = 42.9997
RA_OF_ASC_NODE = 165.3502
ARG_OF_PERICENTER = 235.5406
MEAN_ANOMALY   = 124.5156

EPHEMERIS_TYPE = 0
CLASSIFICATION_TYPE = U
NORAD_CAT_ID   = 67317
ELEMENT_SET_NO = 999
REV_AT_EPOCH   = 583
BSTAR          = .12829E-2
MEAN_MOTION_DOT = .75636E-3
MEAN_MOTION_DDOT = 0

CCSDS_OMM_VERS = 2.0
CREATION_DATE  = 
ORIGINATOR     = 

OBJECT_NAME    = STARLINK-36498
OBJECT_ID      = 2026-002P
CENTER_NAME    = EARTH
REF_FRAME      = TEME
TIME_SYSTEM    = UTC
MEAN_ELEMENT_THEORY = SGP/SGP4

EPOCH          = 2026-02-02T09:49:34.717440
MEAN_MOTION    = 15.50663973
ECCENTRICITY   = .0001694
INCLINATION    = 42.9995
RA_OF_ASC_NODE = 165.3426
ARG_OF_PERICENTER = 263.2018
MEAN_ANOMALY   = 96.8649

EPHEMERIS_TYPE = 0
CLASSIFICATION_TYPE = U
NORAD_CAT_ID   = 67318
ELEMENT_SET_NO = 999
REV_AT_EPOCH   = 573
BSTAR          = .18348E-2
MEAN_MOTION_DOT = .109138E-2
MEAN_MOTION_DDOT = 0

CCSDS_OMM_VERS = 2.0
CREATION_DATE  = 
ORIGINATOR     = 

OBJECT_NAME    = STARLINK-36470
OBJECT_ID      = 2026-002Q
CENTER_NAME    = EARTH
REF_FRAME      = TEME
TIME_SYSTEM    = UTC
MEAN_ELEMENT_THEORY = SGP/SGP4

EPOCH          = 2026-02-01T18:22:30.478656
MEAN_MOTION    = 15.50583115
ECCENTRICITY   = .00004043
INCLINATION    = 42.9977
RA_OF_ASC_NODE = 169.1151
ARG_OF_PERICENTER = 343.6351
MEAN_ANOMALY   = 16.4496

EPHEMERIS_TYPE = 0
CLASSIFICATION_TYPE = U
NORAD_CAT_ID   = 67319
ELEMENT_SET_NO = 999
REV_AT_EPOCH   = 563
BSTAR          = .11161228E-2
MEAN_MOTION_DOT = .65696E-3
MEAN_MOTION_DDOT = 0

CCSDS_OMM_VERS = 2.0
CREATION_DATE  = 
ORIGINATOR     = 

OBJECT_NAME    = STARLINK-36500
OBJECT_ID      = 2026-002R
CENTER_NAME    = EARTH
REF_FRAME      = TEME
TIME_SYSTEM    = UTC
MEAN_ELEMENT_THEORY = SGP/SGP4

EPOCH          = 2026-02-01T00:00:02.999808
MEAN_MOTION    = 15.50611255
ECCENTRICITY   = .00016268
INCLINATION    = 42.9995
RA_OF_ASC_NODE = 173.5823
ARG_OF_PERICENTER = 275.6438
MEAN_ANOMALY   = 129.5340

EPHEMERIS_TYPE = 0
CLASSIFICATION_TYPE = U
NORAD_CAT_ID   = 67320
ELEMENT_SET_NO = 999
REV_AT_EPOCH   = 558
BSTAR          = -.12018685E-2
MEAN_MOTION_DOT = -.70301E-3
MEAN_MOTION_DDOT = 0

CCSDS_OMM_VERS = 2.0
CREATION_DATE  = 
ORIGINATOR     = 

OBJECT_NAME    = STARLINK-36462
OBJECT_ID      = 2026-002S
CENTER_NAME    = EARTH
REF_FRAME      = TEME
TIME_SYSTEM    = UTC
MEAN_ELEMENT_THEORY = SGP/SGP4

EPOCH          = 2026-02-02T09:48:05.329728
MEAN_MOTION    = 15.50788787
ECCENTRICITY   = .0006535
INCLINATION    = 43.0005
RA_OF_ASC_NODE = 165.3358
ARG_OF_PERICENTER = 299.5431
MEAN_ANOMALY   = 60.4778

EPHEMERIS_TYPE = 0
CLASSIFICATION_TYPE = U
NORAD_CAT_ID   = 67321
ELEMENT_SET_NO = 999
REV_AT_EPOCH   = 567
BSTAR          = .1744E-2
MEAN_MOTION_DOT = .104187E-2
MEAN_MOTION_DDOT = 0

CCSDS_OMM_VERS = 2.0
CREATION_DATE  = 
ORIGINATOR     = 

OBJECT_NAME    = STARLINK-36434
OBJECT_ID      = 2026-002T
CENTER_NAME    = EARTH
REF_FRAME      = TEME
TIME_SYSTEM    = UTC
MEAN_ELEMENT_THEORY = SGP/SGP4

EPOCH          = 2026-02-02T09:48:39.078432
MEAN_MOTION    = 15.50036268
ECCENTRICITY   = .0009261
INCLINATION    = 43.0036
RA_OF_ASC_NODE = 165.3410
ARG_OF_PERICENTER = 300.4164
MEAN_ANOMALY   = 59.5780

EPHEMERIS_TYPE = 0
CLASSIFICATION_TYPE = U
NORAD_CAT_ID   = 67322
ELEMENT_SET_NO = 999
REV_AT_EPOCH   = 567
BSTAR          = .14868E-2
MEAN_MOTION_DOT = .86295E-3
MEAN_MOTION_DDOT = 0

CCSDS_OMM_VERS = 2.0
CREATION_DATE  = 
ORIGINATOR     = 

OBJECT_NAME    = STARLINK-36497
OBJECT_ID      = 2026-002U
CENTER_NAME    = EARTH
REF_FRAME      = TEME
TIME_SYSTEM    = UTC
MEAN_ELEMENT_THEORY = SGP/SGP4

EPOCH          = 2026-02-02T09:47:38.694336
MEAN_MOTION    = 15.51590540
ECCENTRICITY   = .0002894
INCLINATION    = 42.9985
RA_OF_ASC_NODE = 165.3339
ARG_OF_PERICENTER = 196.7307
MEAN_ANOMALY   = 163.3459

EPHEMERIS_TYPE = 0
CLASSIFICATION_TYPE = U
NORAD_CAT_ID   = 67323
ELEMENT_SET_NO = 999
REV_AT_EPOCH   = 573
BSTAR          = -.21525E-1
MEAN_MOTION_DOT = -.119438E-1
MEAN_MOTION_DDOT = 0

CCSDS_OMM_VERS = 2.0
CREATION_DATE  = 
ORIGINATOR     = 

OBJECT_NAME    = STARLINK-36471
OBJECT_ID      = 2026-002V
CENTER_NAME    = EARTH
REF_FRAME      = TEME
TIME_SYSTEM    = UTC
MEAN_ELEMENT_THEORY = SGP/SGP4

EPOCH          = 2026-02-02T09:46:37.027200
MEAN_MOTION    = 15.50638267
ECCENTRICITY   = .0001906
INCLINATION    = 42.9986
RA_OF_ASC_NODE = 165.3270
ARG_OF_PERICENTER = 282.3619
MEAN_ANOMALY   = 77.7027

EPHEMERIS_TYPE = 0
CLASSIFICATION_TYPE = U
NORAD_CAT_ID   = 67324
ELEMENT_SET_NO = 999
REV_AT_EPOCH   = 567
BSTAR          = .12593E-2
MEAN_MOTION_DOT = .74402E-3
MEAN_MOTION_DDOT = 0

CCSDS_OMM_VERS = 2.0
CREATION_DATE  = 
ORIGINATOR     = 

OBJECT_NAME    = STARLINK-36473
OBJECT_ID      = 2026-002W
CENTER_NAME    = EARTH
REF_FRAME      = TEME
TIME_SYSTEM    = UTC
MEAN_ELEMENT_THEORY = SGP/SGP4

EPOCH          = 2026-02-02T09:47:04.891200
MEAN_MOTION    = 15.54345475
ECCENTRICITY   = .0028909
INCLINATION    = 42.9938
RA_OF_ASC_NODE = 165.3326
ARG_OF_PERICENTER = 163.7871
MEAN_ANOMALY   = 196.3921

EPHEMERIS_TYPE = 0
CLASSIFICATION_TYPE = U
NORAD_CAT_ID   = 67325
ELEMENT_SET_NO = 999
REV_AT_EPOCH   = 583
BSTAR          = .16552E-1
MEAN_MOTION_DOT = .124157E-1
MEAN_MOTION_DDOT = 0

CCSDS_OMM_VERS = 2.0
CREATION_DATE  = 
ORIGINATOR     = 

OBJECT_NAME    = STARLINK-36430
OBJECT_ID      = 2026-002X
CENTER_NAME    = EARTH
REF_FRAME      = TEME
TIME_SYSTEM    = UTC
MEAN_ELEMENT_THEORY = SGP/SGP4

EPOCH          = 2026-02-02T09:45:37.644480
MEAN_MOTION    = 15.50630046
ECCENTRICITY   = .0001714
INCLINATION    = 43.0006
RA_OF_ASC_NODE = 165.3188
ARG_OF_PERICENTER = 268.6729
MEAN_ANOMALY   = 91.3935

EPHEMERIS_TYPE = 0
CLASSIFICATION_TYPE = U
NORAD_CAT_ID   = 67326
ELEMENT_SET_NO = 999
REV_AT_EPOCH   = 583
BSTAR          = .10957E-2
MEAN_MOTION_DOT = .64589E-3
MEAN_MOTION_DDOT = 0

CCSDS_OMM_VERS = 2.0
CREATION_DATE  = 
ORIGINATOR     = 

OBJECT_NAME    = STARLINK-36501
OBJECT_ID      = 2026-002Y
CENTER_NAME    = EARTH
REF_FRAME      = TEME
TIME_SYSTEM    = UTC
MEAN_ELEMENT_THEORY = SGP/SGP4

EPOCH          = 2026-02-02T09:46:07.408416
MEAN_MOTION    = 15.50635024
ECCENTRICITY   = .0001472
INCLINATION    = 43.0006
RA_OF_ASC_NODE = 165.3233
ARG_OF_PERICENTER = 279.7976
MEAN_ANOMALY   = 80.2718

EPHEMERIS_TYPE = 0
CLASSIFICATION_TYPE = U
NORAD_CAT_ID   = 67327
ELEMENT_SET_NO = 999
REV_AT_EPOCH   = 567
BSTAR          = .12211E-2
MEAN_MOTION_DOT = .72101E-3
MEAN_MOTION_DDOT = 0

